IRIDIUM 136             
1 42962U 17061H   23217.23739200 -.00000286  00000+0 -10904-3 0  9993
2 42962  86.3956 102.8196 0001951  82.9359 277.2059 14.34215960304779
